SPAWAR-CAL-O            
1 43766U 18099J   26068.73975788  .00021069  00000+0  69663-3 0  9999
2 43766  97.4452 132.0993 0007239 285.0670  74.9770 15.31356755398280
STARLINK-31249          
1 58838U 24017N   26068.61316549 -.00001798  00000+0 -48633-4 0  9997
2 58838  53.1595 204.7330 0000318  38.2043 321.8981 15.30192085120046
